[{"OBJECT_NAME":"VIGORIDE-3","OBJECT_ID":"2022-057AE","EPOCH":"2026-03-09T22:06:57.048768","MEAN_MOTION":15.2610122,"ECCENTRICITY":0.00097778,"INCLINATION":97.6431,"RA_OF_ASC_NODE":206.4459,"ARG_OF_PERICENTER":111.2279,"MEAN_ANOMALY":249.0004,"EPHEMERIS_TYPE":0,"CLASSIFICATION_TYPE":"U","NORAD_CAT_ID":52760,"ELEMENT_SET_NO":999,"REV_AT_EPOCH":21001,"BSTAR":0.00033325795,"MEAN_MOTION_DOT":8.532e-5,"MEAN_MOTION_DDOT":0},{"OBJECT_NAME":"STARLINK-30848","OBJECT_ID":"2023-171L","EPOCH":"2026-03-09T00:29:43.459296","MEAN_MOTION":15.26738956,"ECCENTRICITY":0.00018158,"INCLINATION":43.0006,"RA_OF_ASC_NODE":288.8677,"ARG_OF_PERICENTER":274.3753,"MEAN_ANOMALY":85.6891,"EPHEMERIS_TYPE":0,"CLASSIFICATION_TYPE":"U","NORAD_CAT_ID":58240,"ELEMENT_SET_NO":999,"REV_AT_EPOCH":12963,"BSTAR":-4.475902e-5,"MEAN_MOTION_DOT":-1.46e-5,"MEAN_MOTION_DDOT":0}]
